KUZGTU 1 (RS47S)        
1 57217U 23091AV  26160.83890330  .00012019  00000+0  41934-3 0  9992
2 57217  97.5069 225.2446 0012356 120.6187 239.6273 15.29692727163256
SONATE-2                
1 59112U 24043Q   26160.69009456  .00035649  00000+0  47284-3 0  9999
2 59112  97.5520 310.6300 0006671 221.0196 139.0558 15.58155089126728
MESAT1                  
1 60209U 24125G   26160.55067271  .00047271  00000+0  53241-3 0  9997
2 60209  97.2317  17.8634 0008827 233.2238 126.8211 15.62376813108377
OOV-CUBE (TUBSAT-30)    
1 60240U 24128F   26160.60303325  .00002162  00000+0  17320-3 0  9992
2 60240  61.9950 252.0179 0045573 132.0593 228.4390 15.02742005104972
COLIBRI-S (RS67S)       
1 61746U 24199M   26160.81994900  .00021364  00000+0  41802-3 0  9997
2 61746  97.3009  34.6086 0006506 314.4503  45.6214 15.47419543136272
HORS 3 (RS81S)          
1 61753U 24199U   26160.81652429  .00036392  00000+0  55321-3 0  9990
2 61753  97.2992  36.5131 0004131 322.7796  37.3171 15.54463332136419
HORS 4 (RS82S)          
1 61754U 24199V   26160.73475679  .00045001  00000+0  57795-3 0  9996
2 61754  97.2940  37.5839 0003146 309.7009  50.3970 15.58986207136480
ARCTICSAT 1 (RS74S)     
1 61762U 24199AD  26160.52862703  .00981020  57856-3  10026-2 0  9990
2 61762  97.2858  44.2155 0008367 205.6667 154.4203 16.10882981136890
SIT-2086                
1 61764U 24199AF  26160.85026449  .00035016  00000+0  56985-3 0  9992
2 61764  97.2949  37.0496 0004430 292.7324  67.3460 15.52579496133292
HYPERVIEW 1G (RS66S)    
1 61772U 24199AP  26160.50125704  .00071217  00000+0  50272-3 0  9993
2 61772  97.2889  39.8433 0002236 269.4785  90.6223 15.73836516133466
ALTAIR (RS65S)          
1 61779U 24199AW  26160.82015830  .00011032  00000+0  30741-3 0  9991
2 61779  97.3045  30.2202 0011851 340.6262  19.4530 15.36883528135985
ASRTU-1 (AO-123)        
1 61781U 24199AY  26160.86682264  .00007156  00000+0  20876-3 0  9999
2 61781  97.3016  29.6039 0013057 342.6565  17.4231 15.35570666132803
SAMSAT-IONOSPHERE (RS7*)
1 61784U 24199BB  26160.86278611  .00045054  00000+0  62301-3 0  9997
2 61784  97.2962  36.5808 0006189 314.8269  45.2483 15.56989709136421
RTU MIREA 1 (RS51S)     
1 61785U 24199BC  26160.83895748  .00056240  00000+0  68599-3 0  9995
2 61785  97.2953  37.3514 0005603 308.1185  51.9566 15.60288890133328
TEVEL2-4                
1 63213U 25052D   26160.68297184  .00017103  00000+0  51594-3 0  9997
2 63213  97.3918  57.0647 0004528 116.3023 243.8685 15.34347478 68969
TEVEL2-5                
1 63214U 25052E   26160.70263762  .00016284  00000+0  49405-3 0  9993
2 63214  97.3913  57.0327 0004468 118.9978 241.1713 15.34177414 68964
TEVEL2-6                
1 63215U 25052F   26160.64956858  .00017293  00000+0  52508-3 0  9991
2 63215  97.3916  56.9640 0004468 119.1540 241.0151 15.34139307 68955
TEVEL2-1                
1 63217U 25052H   26160.67600078  .00016290  00000+0  50303-3 0  9993
2 63217  97.3891  56.6234 0004296 127.2307 232.9328 15.33616916 68944
TEVEL2-3                
1 63218U 25052J   26160.27943529  .00016163  00000+0  49846-3 0  9990
2 63218  97.3888  56.2474 0004411 129.8518 230.3113 15.33659205 68889
TEVEL2-2                
1 63219U 25052K   26160.67635539  .00016199  00000+0  50009-3 0  9996
2 63219  97.3888  56.6264 0004307 129.1592 231.0034 15.33624992 68942
TEVEL2-9                
1 63237U 25052AD  26160.64412435  .00015092  00000+0  49533-3 0  9992
2 63237  97.3951  55.9854 0007074 151.9311 208.2313 15.31666357 68873
TEVEL2-7                
1 63238U 25052AE  26160.61825465  .00014431  00000+0  47805-3 0  9997
2 63238  97.3953  55.8788 0007177 152.6512 207.5109 15.31376921 68865
TEVEL2-8                
1 63239U 25052AF  26160.69177181  .00014112  00000+0  46777-3 0  9994
2 63239  97.3952  55.9294 0007169 153.0566 207.1049 15.31361975 68876
INNOSAT 16 (RS92S7)     
1 64878U 25155C   26160.78626996  .00005495  00000+0  22039-3 0  9990
2 64878  97.4556 127.9380 0009660 201.9524 158.1301 15.25378981 79548
GEOSCAN 6 (RS92S6)      
1 64879U 25155D   26160.72619518  .00009541  00000+0  33075-3 0  9995
2 64879  97.4549 129.2500 0007335 187.6798 172.4332 15.30011340 79621
GEOSCAN 1 (RS92S1)      
1 64880U 25155E   26160.73151722  .00010223  00000+0  34789-3 0  9998
2 64880  97.4546 129.3968 0007281 187.2598 172.8539 15.30595428 79631
239ALFEROV (RS61S)      
1 64881U 25155F   26160.84227096  .00013835  00000+0  43940-3 0  9990
2 64881  97.4546 130.0449 0006985 183.1897 176.9302 15.32744643 79687
GEOSCAN 2 (RS92S2)      
1 64890U 25155Q   26160.72652166  .00010183  00000+0  34366-3 0  9992
2 64890  97.4545 129.5412 0007138 172.8031 187.3314 15.30867198 79649
GEOSCAN 5 (RS92S5)      
1 64891U 25155R   26160.83281922  .00013561  00000+0  42661-3 0  9993
2 64891  97.4539 130.1701 0005654 186.2795 173.8378 15.33063137 79698
GEOSCAN 4 (RS92S4)      
1 64892U 25155S   26160.81773966  .00014210  00000+0  44477-3 0  9995
2 64892  97.4543 130.2012 0005721 186.7960 173.3206 15.33212833 79698
