OBJECT_NAME,OBJECT_ID,EPOCH,MEAN_MOTION,ECCENTRICITY,INCLINATION,RA_OF_ASC_NODE,ARG_OF_PERICENTER,MEAN_ANOMALY,EPHEMERIS_TYPE,CLASSIFICATION_TYPE,NORAD_CAT_ID,ELEMENT_SET_NO,REV_AT_EPOCH,BSTAR,MEAN_MOTION_DOT,MEAN_MOTION_DDOT
KUZGTU 1 (RS47S),2023-091AV,2026-06-09T20:08:01.245120,15.29692727,.00123563,97.5069,225.2446,120.6187,239.6273,0,U,57217,999,16325,.41933793E-3,.12019E-3,0
SONATE-2,2024-043Q,2026-06-09T16:33:44.169984,15.58155089,.00066713,97.5520,310.6300,221.0196,139.0558,0,U,59112,999,12672,.4728388E-3,.35649E-3,0
MESAT1,2024-125G,2026-06-09T13:12:58.122144,15.62376813,.00088272,97.2317,17.8634,233.2238,126.8211,0,U,60209,999,10837,.53240908E-3,.47271E-3,0
OOV-CUBE (TUBSAT-30),2024-128F,2026-06-09T14:28:22.072800,15.02742005,.00455733,61.9950,252.0179,132.0593,228.4390,0,U,60240,999,10497,.17320396E-3,.2162E-4,0
COLIBRI-S (RS67S),2024-199M,2026-06-09T19:40:43.593600,15.47419543,.00065067,97.3009,34.6086,314.4503,45.6214,0,U,61746,999,13627,.41801814E-3,.21364E-3,0
HORS 3 (RS81S),2024-199U,2026-06-09T19:35:47.698656,15.54463332,.00041318,97.2992,36.5131,322.7796,37.3171,0,U,61753,999,13641,.55321112E-3,.36392E-3,0
HORS 4 (RS82S),2024-199V,2026-06-09T17:38:02.986656,15.58986207,.00031462,97.2940,37.5839,309.7009,50.3970,0,U,61754,999,13648,.57795283E-3,.45001E-3,0
ARCTICSAT 1 (RS74S),2024-199AD,2026-06-09T12:41:13.375392,16.10882981,.00083678,97.2858,44.2155,205.6667,154.4203,0,U,61762,999,13689,.10026221E-2,.98102E-2,.5785623E-3
SIT-2086,2024-199AF,2026-06-09T20:24:22.851936,15.52579496,.00044308,97.2949,37.0496,292.7324,67.3460,0,U,61764,999,13329,.56985099E-3,.35016E-3,0
HYPERVIEW 1G (RS66S),2024-199AP,2026-06-09T12:01:48.608256,15.73836516,.00022362,97.2889,39.8433,269.4785,90.6223,0,U,61772,999,13346,.5027216E-3,.71217E-3,0
ALTAIR (RS65S),2024-199AW,2026-06-09T19:41:01.677120,15.36883528,.00118519,97.3045,30.2202,340.6262,19.4530,0,U,61779,999,13598,.30740564E-3,.11032E-3,0
ASRTU-1 (AO-123),2024-199AY,2026-06-09T20:48:13.476096,15.35570666,.00130573,97.3016,29.6039,342.6565,17.4231,0,U,61781,999,13280,.20876278E-3,.7156E-4,0
SAMSAT-IONOSPHERE (RS75S),2024-199BB,2026-06-09T20:42:24.719904,15.56989709,.00061899,97.2962,36.5808,314.8269,45.2483,0,U,61784,999,13642,.62301173E-3,.45054E-3,0
RTU MIREA 1 (RS51S),2024-199BC,2026-06-09T20:08:05.926272,15.60288890,.00056035,97.2953,37.3514,308.1185,51.9566,0,U,61785,999,13332,.68599123E-3,.5624E-3,0
TEVEL2-4,2025-052D,2026-06-09T16:23:28.766976,15.34347478,.00045286,97.3918,57.0647,116.3023,243.8685,0,U,63213,999,6896,.51593665E-3,.17103E-3,0
TEVEL2-5,2025-052E,2026-06-09T16:51:47.890368,15.34177414,.00044688,97.3913,57.0327,118.9978,241.1713,0,U,63214,999,6896,.49404817E-3,.16284E-3,0
TEVEL2-6,2025-052F,2026-06-09T15:35:22.725312,15.34139307,.00044687,97.3916,56.9640,119.1540,241.0151,0,U,63215,999,6895,.52507906E-3,.17293E-3,0
TEVEL2-1,2025-052H,2026-06-09T16:13:26.467392,15.33616916,.00042963,97.3891,56.6234,127.2307,232.9328,0,U,63217,999,6894,.50303307E-3,.1629E-3,0
TEVEL2-3,2025-052J,2026-06-09T06:42:23.209056,15.33659205,.00044119,97.3888,56.2474,129.8518,230.3113,0,U,63218,999,6888,.49846388E-3,.16163E-3,0
TEVEL2-2,2025-052K,2026-06-09T16:13:57.105696,15.33624992,.00043077,97.3888,56.6264,129.1592,231.0034,0,U,63219,999,6894,.5000904E-3,.16199E-3,0
TEVEL2-9,2025-052AD,2026-06-09T15:27:32.343840,15.31666357,.0007074,97.3951,55.9854,151.9311,208.2313,0,U,63237,999,6887,.49533067E-3,.15092E-3,0
TEVEL2-7,2025-052AE,2026-06-09T14:50:17.201760,15.31376921,.00071776,97.3953,55.8788,152.6512,207.5109,0,U,63238,999,6886,.47805239E-3,.14431E-3,0
TEVEL2-8,2025-052AF,2026-06-09T16:36:09.084384,15.31361975,.00071697,97.3952,55.9294,153.0566,207.1049,0,U,63239,999,6887,.467774E-3,.14112E-3,0
INNOSAT 16 (RS92S7),2025-155C,2026-06-09T18:52:13.724544,15.25378981,.00096605,97.4556,127.9380,201.9524,158.1301,0,U,64878,999,7954,.22039414E-3,.5495E-4,0
GEOSCAN 6 (RS92S6),2025-155D,2026-06-09T17:25:43.263552,15.30011340,.00073354,97.4549,129.2500,187.6798,172.4332,0,U,64879,999,7962,.33074746E-3,.9541E-4,0
GEOSCAN 1 (RS92S1),2025-155E,2026-06-09T17:33:23.087808,15.30595428,.00072817,97.4546,129.3968,187.2598,172.8539,0,U,64880,999,7963,.34788777E-3,.10223E-3,0
239ALFEROV (RS61S),2025-155F,2026-06-09T20:12:52.210944,15.32744643,.0006985,97.4546,130.0449,183.1897,176.9302,0,U,64881,999,7968,.43940235E-3,.13835E-3,0
GEOSCAN 2 (RS92S2),2025-155Q,2026-06-09T17:26:11.471424,15.30867198,.00071388,97.4545,129.5412,172.8031,187.3314,0,U,64890,999,7964,.34365605E-3,.10183E-3,0
GEOSCAN 5 (RS92S5),2025-155R,2026-06-09T19:59:15.580608,15.33063137,.00056546,97.4539,130.1701,186.2795,173.8378,0,U,64891,999,7969,.42660836E-3,.13561E-3,0
GEOSCAN 4 (RS92S4),2025-155S,2026-06-09T19:37:32.706624,15.33212833,.00057211,97.4543,130.2012,186.7960,173.3206,0,U,64892,999,7969,.44476637E-3,.1421E-3,0
